; data tafs
'("KUNV 202127Z 2021/2118 27009KT P6SM SKC\n  FM210600 24003KT P6SM SCT150\n  FM211500 23008KT P6SM BKN035 OVC150"
  "KIPT 202127Z 2021/2118 25008KT P6SM SKC\n  FM210000 25002KT P6SM SCT100\n  FM211600 22007KT P6SM BKN080"
  "KAOO 202127Z 2021/2118 29006KT P6SM SKC\n  FM210000 22004KT P6SM SKC\n  FM211500 21008KT P6SM SCT040 BKN150")
; data metars
'("KIDI 202315Z AUTO 00000KT 10SM CLR 14/10 A3013 RMK A01"
  "KOYM 202315Z AUTO 22003KT 10SM BKN110 14/08 A3011 RMK AO2"
  "KHMZ 202310Z AUTO 23003KT 10SM CLR 15/07 A3011 RMK AO2 T01460073"
  "KIPT 202254Z 29004KT 10SM CLR 18/08 A3002 RMK AO2 SLP166 T01830083 $"
  "KAOO 202253Z AUTO 24005KT 10SM CLR 16/07 A3010 RMK AO2 SLP192 T01610067"
  "KUNV 202253Z 25008KT 10SM SCT090 16/08 A3008")
; data taf
"KIPT 202127Z 2021/2118 25008KT P6SM SKC\n  FM210000 25002KT P6SM SCT100\n  FM211600 22007KT P6SM BKN080"
; data metar
"KIPT 202254Z 29004KT 10SM CLR 18/08 A3002 RMK AO2 SLP166 T01830083 $"
; data metar-taf
'("KIPT 202254Z 29004KT 10SM CLR 18/08 A3002 RMK AO2 SLP166 T01830083 $"
  "KIPT 202127Z 2021/2118 25008KT P6SM SKC\n  FM210000 25002KT P6SM SCT100\n  FM211600 22007KT P6SM BKN080")
; data metar-tafs
'(("KIPT 202254Z 29004KT 10SM CLR 18/08 A3002 RMK AO2 SLP166 T01830083 $"
   "KIPT 202127Z 2021/2118 25008KT P6SM SKC\n  FM210000 25002KT P6SM SCT100\n  FM211600 22007KT P6SM BKN080")
  ("KUNV 202253Z 25008KT 10SM SCT090 16/08 A3008"
   "KUNV 202127Z 2021/2118 27009KT P6SM SKC\n  FM210600 24003KT P6SM SCT150\n  FM211500 23008KT P6SM BKN035 OVC150")
  ("KAOO 202253Z AUTO 24005KT 10SM CLR 16/07 A3010 RMK AO2 SLP192 T01610067"
   "KAOO 202127Z 2021/2118 29006KT P6SM SKC\n  FM210000 22004KT P6SM SKC\n  FM211500 21008KT P6SM SCT040 BKN150")
  ("KIDI 202315Z AUTO 00000KT 10SM CLR 14/10 A3013 RMK A01" "")
  ("KHMZ 202310Z AUTO 23003KT 10SM CLR 15/07 A3011 RMK AO2 T01460073" "")
  ("KOYM 202315Z AUTO 22003KT 10SM BKN110 14/08 A3011 RMK AO2" ""))

; display metar
KIPT 202254Z 29004KT 10SM CLR 18/08 A3002 RMK AO2 SLP166 T01830083 $
; display metars
KIDI 202315Z AUTO 00000KT 10SM CLR 14/10 A3013 RMK A01
KOYM 202315Z AUTO 22003KT 10SM BKN110 14/08 A3011 RMK AO2
KHMZ 202310Z AUTO 23003KT 10SM CLR 15/07 A3011 RMK AO2 T01460073
KIPT 202254Z 29004KT 10SM CLR 18/08 A3002 RMK AO2 SLP166 T01830083 $
KAOO 202253Z AUTO 24005KT 10SM CLR 16/07 A3010 RMK AO2 SLP192 T01610067
KUNV 202253Z 25008KT 10SM SCT090 16/08 A3008
; display taf
KIPT 202127Z 2021/2118 25008KT P6SM SKC
  FM210000 25002KT P6SM SCT100
  FM211600 22007KT P6SM BKN080
; display tafs
KUNV 202127Z 2021/2118 27009KT P6SM SKC
  FM210600 24003KT P6SM SCT150
  FM211500 23008KT P6SM BKN035 OVC150
KIPT 202127Z 2021/2118 25008KT P6SM SKC
  FM210000 25002KT P6SM SCT100
  FM211600 22007KT P6SM BKN080
KAOO 202127Z 2021/2118 29006KT P6SM SKC
  FM210000 22004KT P6SM SKC
  FM211500 21008KT P6SM SCT040 BKN150
; display metar-taf
KIPT 202254Z 29004KT 10SM CLR 18/08 A3002 RMK AO2 SLP166 T01830083 $
KIPT 202127Z 2021/2118 25008KT P6SM SKC
  FM210000 25002KT P6SM SCT100
  FM211600 22007KT P6SM BKN080
; display metar-tafs
KIPT 202254Z 29004KT 10SM CLR 18/08 A3002 RMK AO2 SLP166 T01830083 $
KIPT 202127Z 2021/2118 25008KT P6SM SKC
  FM210000 25002KT P6SM SCT100
  FM211600 22007KT P6SM BKN080
KUNV 202253Z 25008KT 10SM SCT090 16/08 A3008
KUNV 202127Z 2021/2118 27009KT P6SM SKC
  FM210600 24003KT P6SM SCT150
  FM211500 23008KT P6SM BKN035 OVC150
KAOO 202253Z AUTO 24005KT 10SM CLR 16/07 A3010 RMK AO2 SLP192 T01610067
KAOO 202127Z 2021/2118 29006KT P6SM SKC
  FM210000 22004KT P6SM SKC
  FM211500 21008KT P6SM SCT040 BKN150
KIDI 202315Z AUTO 00000KT 10SM CLR 14/10 A3013 RMK A01
KHMZ 202310Z AUTO 23003KT 10SM CLR 15/07 A3011 RMK AO2 T01460073
KOYM 202315Z AUTO 22003KT 10SM BKN110 14/08 A3011 RMK AO2
